KUIPER-00616            
1 69775U 26151N   26196.17871409  .00012630  00000+0  33812-3 0  9991
2 69775  51.8774 180.3784 0003225 121.3983 238.7320 15.38390469  2014
KUIPER-00617            
1 69776U 26151P   26195.98795369  .00011009  00000+0  30200-3 0  9997
2 69776  51.8785 181.3453 0004162 133.9652 226.1679 15.37776227  1986
KUIPER-00619            
1 69777U 26151Q   26196.11171600  .00016074  00000+0  42528-3 0  9993
2 69777  51.8789 180.6750 0001897  70.3470 289.7722 15.38540877  2006
KUIPER-00621            
1 69778U 26151R   26196.17857831  .00014339  00000+0  38317-3 0  9990
2 69778  51.8784 180.3752 0002259 117.0376 243.0842 15.38329331  2015
KUIPER-00622            
1 69779U 26151S   26196.12451728  .00011789  00000+0  33081-3 0  9990
2 69779  51.8733 180.7623 0006835 147.4236 212.7173 15.36984918  2002
KUIPER-00623            
1 69780U 26151T   26196.12051389  .00011643  00000+0  32233-3 0  9998
2 69780  51.8774 180.7335 0005138 135.5060 224.6340 15.37427376  2006
KUIPER-00626            
1 69781U 26151U   26196.13379561  .00041302  00000+0  11811-2 0  9998
2 69781  51.8706 180.8245 0007683 160.8597 199.2679 15.35540165  2008
KUIPER-00627            
1 69782U 26151V   26196.13552500  .00012917  00000+0  37932-3 0  9998
2 69782  51.8691 180.8294 0010955 165.8540 194.2755 15.35431940  2005
KUIPER-00629            
1 69783U 26151W   26196.12499294  .00008667  00000+0  24633-3 0  9999
2 69783  51.8731 180.7656 0006704 146.5780 213.5631 15.36960404  2002
KUIPER-00631            
1 69784U 26151X   26196.12690619  .00009646  00000+0  27482-3 0  9997
2 69784  51.8704 180.7768 0007763 154.2136 205.9239 15.36734382  2007
KUIPER-00634            
1 69785U 26151Y   26196.18341938  .00011748  00000+0  32194-3 0  9993
2 69785  51.8764 180.4073 0003694 136.2486 223.8794 15.37737258  2019
KUIPER-00639            
1 69786U 26151Z   26196.13161559 -.00012024  00000+0 -32893-3 0  9994
2 69786  51.8682 180.8045 0009406 161.7192 198.4134 15.35807349  2007
KUIPER-00641            
1 69787U 26151AA  26196.13632252  .00014696  00000+0  43448-3 0  9991
2 69787  51.8674 180.8330 0009594 163.4487 196.6814 15.35112152  2006
KUIPER-00644            
1 69788U 26151AB  26195.99781112  .01942196  00000+0  43501-1 0  9999
2 69788  51.8743 181.4101 0024482 194.9386 165.0881 15.39299515  1980
KUIPER-00646            
1 69789U 26151AC  26196.13118385 -.00000912  00000+0 -14689-4 0  9993
2 69789  51.8695 180.8028 0009546 164.4300 195.6981 15.35912594  2009
KUIPER-00647            
1 69790U 26151AD  26196.13463301 -.00034508  00000+0 -97698-3 0  9994
2 69790  51.8652 180.8232 0011009 164.3672 195.7656 15.35483388  2003
KUIPER-00662            
1 69791U 26151AE  26195.47742373 -.00129583  00000+0 -36493-2 0  9993
2 69791  51.8719 183.9237 0008206 150.8768 209.2677 15.36321024  1909
LINK                    
1 69792U 26152A   26195.54818790  .00126451  00000+0  10950-2 0  9999
2 69792  20.5927 332.3809 0024505 346.3344  13.6438 15.66971156  1756
2026-152B               
1 69793U 26152B   26194.72720642  .00034944  00000+0  33008-3 0  9992
2 69793  20.5989 338.8282 0022426 333.1353  26.7932 15.64685266  1627
ISS OBJECT YJ           
1 69794U 98067YJ  26195.92128698  .00019495  00000+0  34821-3 0  9991
2 69794  51.6309 162.7652 0007754 310.2299  49.8011 15.50016482  1959
ISS OBJECT YK           
1 69795U 98067YK  26195.91764794  .00034183  00000+0  58944-3 0  9997
2 69795  51.6307 162.7411 0006743 318.9843  41.0638 15.50686922  1959
ISS OBJECT YL           
1 69796U 98067YL  26195.91855921  .00027100  00000+0  47292-3 0  9996
2 69796  51.6307 162.7470 0008794 311.6154  48.4081 15.50455884  1941
ISS OBJECT YM           
1 69797U 98067YM  26195.91831565  .00027685  00000+0  48210-3 0  9994
2 69797  51.6309 162.7451 0009572 302.7660  57.2406 15.50497173  1936
ISS OBJECT YN           
1 69798U 98067YN  26195.91895757  .00019101  00000+0  33787-3 0  9995
2 69798  51.6309 162.7495 0009226 314.2657  45.7574 15.50295985  1952
ISS OBJECT YP           
1 69799U 98067YP  26195.91824047  .00026668  00000+0  46478-3 0  9997
2 69799  51.6308 162.7447 0009742 302.8936  57.1115 15.50492869  1942
QIANFAN-201             
1 69800U 26153A   26196.11397958  .00000099  00000+0  18252-4 0  9996
2 69800  89.0162 358.9868 0087059  87.2328 273.8841 14.53448476  1568
QIANFAN-202             
1 69801U 26153B   26195.90194356  .00000052  00000+0  17118-4 0  9999
2 69801  88.9965 359.0753 0006377 171.8728 188.2568 14.22084805  1508
QIANFAN-203             
1 69802U 26153C   26195.97106517  .00000052  00000+0  16795-4 0  9999
2 69802  88.9955 359.0604 0010302 197.5852 162.4984 14.22901054  1510
QIANFAN-204             
1 69803U 26153D   26196.18203846  .00000121  00000+0  47887-4 0  9990
2 69803  88.9922 359.0518 0007217 183.6239 176.4902 14.22390494  1543
QIANFAN-205             
1 69804U 26153E   26196.18321230  .00000119  00000+0  47173-4 0  9994
2 69804  88.9921 359.0518 0007429 182.0005 178.1158 14.22264186  1542
